{
  "norad_id": 61782,
  "name": "TUSUR GO (RS78S)",
  "history": [
    {
      "epoch": "2026-03-28T10:48:24.203232Z",
      "apogee_km": 341.35594594503345,
      "perigee_km": 333.5203471755294,
      "latitude_deg": -1.8064106502038385e-05,
      "longitude_deg": -21.780196598947665,
      "height_km": 344.5185566190971,
      "semi_major_axis_km": 6715.575146560281,
      "eccentricity": 0.00058339,
      "inclination_deg": 97.2973,
      "raan_deg": 326.1912,
      "arg_perigee_deg": 176.1622,
      "mean_anomaly_deg": 183.969,
      "mean_motion_rev_day": 15.77531145
    }
  ]
}